{
    "links": {
        "self": "http://www.neowsapp.com/rest/v1/neo/3841975?api_key=iIulBulltgU6a56xZRHN4H3l9WmuAYTsLGpBGhQ2"
    },
    "id": "3841975",
    "neo_reference_id": "3841975",
    "name": "(2019 KS)",
    "designation": "2019 KS",
    "nasa_jpl_url": "http://ssd.jpl.nasa.gov/sbdb.cgi?sstr=3841975",
    "absolute_magnitude_h": 24.6,
    "estimated_diameter": {
        "kilometers": {
            "estimated_diameter_min": 0.0319561887,
            "estimated_diameter_max": 0.0714562102
        },
        "meters": {
            "estimated_diameter_min": 31.9561886721,
            "estimated_diameter_max": 71.4562101727
        },
        "miles": {
            "estimated_diameter_min": 0.0198566489,
            "estimated_diameter_max": 0.0444008168
        },
        "feet": {
            "estimated_diameter_min": 104.8431420431,
            "estimated_diameter_max": 234.436392583
        }
    },
    "is_potentially_hazardous_asteroid": false,
    "close_approach_data": [
        {
            "close_approach_date": "1978-09-24",
            "close_approach_date_full": "1978-Sep-24 23:00",
            "epoch_date_close_approach": 275526000000,
            "relative_velocity": {
                "kilometers_per_second": "14.3147039795",
                "kilometers_per_hour": "51532.934326344",
                "miles_per_hour": "32020.561331833"
            },
            "miss_distance": {
                "astronomical": "0.2746833738",
                "lunar": "106.8518324082",
                "kilometers": "41092047.644893806",
                "miles": "25533414.4063782828"
            },
            "orbiting_body": "Earth"
        },
        {
            "close_approach_date": "2019-06-04",
            "close_approach_date_full": "2019-Jun-04 19:42",
            "epoch_date_close_approach": 1559677320000,
            "relative_velocity": {
                "kilometers_per_second": "17.6143255326",
                "kilometers_per_hour": "63411.571917409",
                "miles_per_hour": "39401.4847839034"
            },
            "miss_distance": {
                "astronomical": "0.0314025611",
                "lunar": "12.2155962679",
                "kilometers": "4697756.253104857",
                "miles": "2919050.3775147466"
            },
            "orbiting_body": "Earth"
        }
    ],
    "orbital_data": {
        "orbit_id": "8",
        "orbit_determination_date": "2019-06-04 06:25:57",
        "first_observation_date": "2019-05-25",
        "last_observation_date": "2019-06-04",
        "data_arc_in_days": 10,
        "observations_used": 58,
        "orbit_uncertainty": "8",
        "minimum_orbit_intersection": ".0127849",
        "jupiter_tisserand_invariant": "3.602",
        "epoch_osculation": "2458632.5",
        "eccentricity": ".6411620952632997",
        "semi_major_axis": "1.951621958114704",
        "inclination": "5.218082529632013",
        "ascending_node_longitude": "235.0907217861025",
        "orbital_period": "995.8455122732169",
        "perihelion_distance": ".7003159342880168",
        "perihelion_argument": "96.15885333970066",
        "aphelion_distance": "3.202927981941392",
        "perihelion_time": "2458687.037958409044",
        "mean_anomaly": "340.284426866133",
        "mean_motion": ".3615018550198895",
        "equinox": "J2000",
        "orbit_class": {
            "orbit_class_type": "APO",
            "orbit_class_description": "Near-Earth asteroid orbits which cross the Earth’s orbit similar to that of 1862 Apollo",
            "orbit_class_range": "a (semi-major axis) > 1.0 AU; q (perihelion) < 1.017 AU"
        }
    },
    "is_sentry_object": false
}